OBJECT_NAME,OBJECT_ID,EPOCH,MEAN_MOTION,ECCENTRICITY,INCLINATION,RA_OF_ASC_NODE,ARG_OF_PERICENTER,MEAN_ANOMALY,EPHEMERIS_TYPE,CLASSIFICATION_TYPE,NORAD_CAT_ID,ELEMENT_SET_NO,REV_AT_EPOCH,BSTAR,MEAN_MOTION_DOT,MEAN_MOTION_DDOT
STARLINK-34253,2025-139X,2026-06-17T19:48:22.101120,15.34412928,.00023696,53.1576,20.6190,163.4815,196.6265,0,U,64685,999,5563,.80221275E-3,.26837E-3,0
STARLINK-34565,2025-139Y,2026-06-17T20:57:57.394080,15.34374580,.00007937,53.1583,20.2121,93.5986,266.5107,0,U,64686,999,5564,.70807155E-3,.23603E-3,0
STARLINK-34554,2025-139Z,2026-06-18T07:21:11.471328,15.34399443,.00011566,53.1598,17.9370,85.9987,274.1148,0,U,64687,999,5571,.57006504E-3,.18933E-3,0
STARLINK-34262,2025-139AA,2026-06-17T23:59:27.928320,15.34399446,.00011519,53.1590,19.5724,77.4176,282.6955,0,U,64688,999,5572,.79034698E-3,.26421E-3,0
STARLINK-34538,2025-139AB,2026-06-17T23:56:26.174688,15.34397537,.00009734,53.1584,19.5634,66.3108,293.7996,0,U,64689,999,5566,.40800023E-3,.13432E-3,0
STARLINK-34250,2025-139AC,2026-06-17T21:10:03.263808,15.34400282,.00009297,53.1579,20.2592,60.2320,299.8775,0,U,64690,999,5564,.64358449E-3,.21431E-3,0
LYRA-4,2025-140A,2026-06-18T13:49:47.752896,14.72500496,.001214,96.0061,289.6294,193.0876,167.0024,0,U,64691,999,5226,.16477984E-3,.1018E-4,0
GOSAT-GW (IBUKI GW),2025-141A,2026-06-18T14:55:37.418304,14.67553997,.00014505,98.0569,106.9157,84.2990,275.8380,0,U,64694,999,5205,.1381529E-4,.31E-6,0
STARLINK-34497,2025-142A,2026-06-18T10:37:23.422080,14.98333975,.00027257,70.0012,60.3845,269.4641,90.6205,0,U,64696,999,5473,.13367446E-3,.1503E-4,0
STARLINK-34584,2025-142B,2026-06-18T10:13:06.389760,14.98335269,.00031632,70.0013,60.3202,268.3171,91.7625,0,U,64697,999,5457,.1929593E-3,.221E-4,0
STARLINK-34535,2025-142C,2026-06-18T09:43:05.355840,14.98336276,.00026691,70.0010,60.6310,268.1844,91.9010,0,U,64698,999,5455,.15180472E-3,.1719E-4,0
STARLINK-34600,2025-142D,2026-06-18T09:37:03.208512,14.98379416,.00031298,70.0009,60.6130,267.5230,92.5571,0,U,64699,999,5456,.81053003E-3,.9604E-4,0
STARLINK-34560,2025-142E,2026-06-18T09:55:06.768192,14.98340955,.00017172,70.0050,60.6508,282.0516,78.0450,0,U,64700,999,5452,.39824967E-3,.4663E-4,0
STARLINK-34576,2025-142F,2026-06-18T10:19:21.297504,14.98333221,.00027355,70.0013,60.3072,269.2952,90.7893,0,U,64701,999,5456,.14846571E-3,.1679E-4,0
STARLINK-34322,2025-142G,2026-06-18T02:24:41.625792,14.98336230,.00028887,70.0014,61.1665,268.9624,91.1204,0,U,64702,999,5468,.26340006E-3,.3052E-4,0
STARLINK-34470,2025-142H,2026-06-18T10:07:20.054496,14.98332188,.00029303,70.0010,60.2812,270.3631,89.7193,0,U,64703,999,5455,.10488383E-3,.1159E-4,0
STARLINK-34405,2025-142J,2026-06-18T10:31:22.840320,14.98335372,.00026458,70.0010,60.3680,269.8190,90.2666,0,U,64704,999,5458,.17245915E-3,.1966E-4,0
STARLINK-34406,2025-142K,2026-06-18T09:31:04.525824,14.98344652,.00030631,70.0015,60.6237,275.1084,84.9726,0,U,64705,999,5468,.2891934E-3,.3361E-4,0
STARLINK-34559,2025-142L,2026-06-18T10:31:09.306624,14.98327079,.00024864,70.0008,60.3646,270.4355,89.6520,0,U,64706,999,5458,.10578851E-3,.1169E-4,0
STARLINK-34316,2025-142M,2026-06-18T10:37:09.092640,14.98336493,.00029061,70.0012,60.3780,263.3271,96.7558,0,U,64707,999,5474,.22179945E-3,.2555E-4,0
STARLINK-34563,2025-142N,2026-06-18T10:01:07.572000,14.98331834,.00025723,70.0011,60.6912,268.6344,91.4521,0,U,64708,999,5454,.79783402E-4,.859E-5,0
STARLINK-34499,2025-142P,2026-06-18T10:25:09.371136,14.98325868,.00025614,70.0022,60.3288,267.5426,92.5440,0,U,64709,999,5455,.45233779E-3,.5308E-4,0
STARLINK-34447,2025-142Q,2026-06-18T02:54:44.757504,14.98335768,.00026917,70.0013,61.2289,268.4445,91.6406,0,U,64710,999,5469,.17501888E-3,.1996E-4,0
STARLINK-34312,2025-142R,2026-06-18T10:43:24.020256,14.98334574,.00028862,70.0013,60.3875,267.6731,92.4097,0,U,64711,999,5474,.14040832E-3,.1583E-4,0
STARLINK-34515,2025-142S,2026-06-18T10:13:20.372736,14.98350203,.00023846,70.0016,60.2973,273.8499,86.2387,0,U,64712,999,5455,.5872011E-3,.6924E-4,0
STARLINK-34583,2025-142T,2026-06-18T09:49:07.165344,14.98344144,.00031308,70.0013,60.6328,272.9113,87.1688,0,U,64713,999,5454,.47887571E-3,.5628E-4,0
STARLINK-34574,2025-142U,2026-06-18T03:00:45.468000,14.98336608,.00027991,70.0012,61.2767,261.5508,98.5334,0,U,64714,999,5453,.15833404E-3,.1797E-4,0
STARLINK-34533,2025-142V,2026-06-18T10:43:08.303232,14.98365797,.00031534,70.0013,60.3950,270.4692,89.6106,0,U,64715,999,5455,.84564852E-3,.10021E-3,0
STARLINK-34548,2025-142W,2026-06-18T10:19:06.346848,14.98340720,.0002687,70.0013,60.3357,272.1877,87.8975,0,U,64716,999,5455,.12366992E-3,.1383E-4,0
STARLINK-34568,2025-142X,2026-06-18T02:54:30.684672,14.98336424,.00028664,70.0013,61.2655,270.1030,89.9800,0,U,64717,999,5453,.20476694E-3,.2351E-4,0
