STARLINK-34253          
1 64685U 25139X   26168.82525580  .00026837  00000+0  80221-3 0  9998
2 64685  53.1576  20.6190 0002369 163.4815 196.6265 15.34412928 55637
STARLINK-34565          
1 64686U 25139Y   26168.87358095  .00023603  00000+0  70807-3 0  9996
2 64686  53.1583  20.2121 0000793  93.5986 266.5107 15.34374580 55641
STARLINK-34554          
1 64687U 25139Z   26169.30638277  .00018933  00000+0  57007-3 0  9996
2 64687  53.1598  17.9370 0001156  85.9987 274.1148 15.34399443 55710
STARLINK-34262          
1 64688U 25139AA  26168.99962880  .00026421  00000+0  79035-3 0  9997
2 64688  53.1590  19.5724 0001151  77.4176 282.6955 15.34399446 55729
STARLINK-34538          
1 64689U 25139AB  26168.99752517  .00013432  00000+0  40800-3 0  9998
2 64689  53.1584  19.5634 0000973  66.3108 293.7996 15.34397537 55666
STARLINK-34250          
1 64690U 25139AC  26168.88198222  .00021431  00000+0  64358-3 0  9997
2 64690  53.1579  20.2592 0000929  60.2320 299.8775 15.34400282 55646
LYRA-4                  
1 64691U 25140A   26169.57624714  .00001018  00000+0  16478-3 0  9996
2 64691  96.0061 289.6294 0012140 193.0876 167.0024 14.72500496 52265
GOSAT-GW (IBUKI GW)     
1 64694U 25141A   26169.62196086  .00000031  00000+0  13815-4 0  9999
2 64694  98.0569 106.9157 0001450  84.2990 275.8380 14.67553997 52050
STARLINK-34497          
1 64696U 25142A   26169.44263220  .00001503  00000+0  13367-3 0  9993
2 64696  70.0012  60.3845 0002725 269.4641  90.6205 14.98333975 54730
STARLINK-34584          
1 64697U 25142B   26169.42576840  .00002210  00000+0  19296-3 0  9990
2 64697  70.0013  60.3202 0003163 268.3171  91.7625 14.98335269 54570
STARLINK-34535          
1 64698U 25142C   26169.40492310  .00001719  00000+0  15180-3 0  9999
2 64698  70.0010  60.6310 0002669 268.1844  91.9010 14.98336276 54553
STARLINK-34600          
1 64699U 25142D   26169.40073158  .00009604  00000+0  81053-3 0  9998
2 64699  70.0009  60.6130 0003129 267.5230  92.5571 14.98379416 54569
STARLINK-34560          
1 64700U 25142E   26169.41327278  .00004663  00000+0  39825-3 0  9997
2 64700  70.0050  60.6508 0001717 282.0516  78.0450 14.98340955 54524
STARLINK-34576          
1 64701U 25142F   26169.43010761  .00001679  00000+0  14847-3 0  9997
2 64701  70.0013  60.3072 0002735 269.2952  90.7893 14.98333221 54563
STARLINK-34322          
1 64702U 25142G   26169.10048178  .00003052  00000+0  26340-3 0  9993
2 64702  70.0014  61.1665 0002888 268.9624  91.1204 14.98336230 54680
STARLINK-34470          
1 64703U 25142H   26169.42175989  .00001159  00000+0  10488-3 0  9992
2 64703  70.0010  60.2812 0002930 270.3631  89.7193 14.98332188 54558
STARLINK-34405          
1 64704U 25142J   26169.43845880  .00001966  00000+0  17246-3 0  9993
2 64704  70.0010  60.3680 0002645 269.8190  90.2666 14.98335372 54582
STARLINK-34406          
1 64705U 25142K   26169.39658016  .00003361  00000+0  28919-3 0  9992
2 64705  70.0015  60.6237 0003063 275.1084  84.9726 14.98344652 54685
STARLINK-34559          
1 64706U 25142L   26169.43830216  .00001169  00000+0  10579-3 0  9999
2 64706  70.0008  60.3646 0002486 270.4355  89.6520 14.98327079 54583
STARLINK-34316          
1 64707U 25142M   26169.44246635  .00002555  00000+0  22180-3 0  9998
2 64707  70.0012  60.3780 0002906 263.3271  96.7558 14.98336493 54741
STARLINK-34563          
1 64708U 25142N   26169.41744875  .00000859  00000+0  79783-4 0  9992
2 64708  70.0011  60.6912 0002572 268.6344  91.4521 14.98331834 54543
STARLINK-34499          
1 64709U 25142P   26169.43413624  .00005308  00000+0  45234-3 0  9997
2 64709  70.0022  60.3288 0002561 267.5426  92.5440 14.98325868 54559
STARLINK-34447          
1 64710U 25142Q   26169.12135136  .00001996  00000+0  17502-3 0  9990
2 64710  70.0013  61.2289 0002691 268.4445  91.6406 14.98335768 54694
STARLINK-34312          
1 64711U 25142R   26169.44680579  .00001583  00000+0  14041-3 0  9999
2 64711  70.0013  60.3875 0002886 267.6731  92.4097 14.98334574 54746
STARLINK-34515          
1 64712U 25142S   26169.42593024  .00006924  00000+0  58720-3 0  9992
2 64712  70.0016  60.2973 0002384 273.8499  86.2387 14.98350203 54550
STARLINK-34583          
1 64713U 25142T   26169.40911071  .00005628  00000+0  47888-3 0  9990
2 64713  70.0013  60.6328 0003130 272.9113  87.1688 14.98344144 54549
STARLINK-34574          
1 64714U 25142U   26169.12552625  .00001797  00000+0  15833-3 0  9994
2 64714  70.0012  61.2767 0002799 261.5508  98.5334 14.98336608 54534
STARLINK-34533          
1 64715U 25142V   26169.44662388  .00010021  00000+0  84565-3 0  9996
2 64715  70.0013  60.3950 0003153 270.4692  89.6106 14.98365797 54559
STARLINK-34548          
1 64716U 25142W   26169.42993457  .00001383  00000+0  12367-3 0  9991
2 64716  70.0013  60.3357 0002687 272.1877  87.8975 14.98340720 54559
STARLINK-34568          
1 64717U 25142X   26169.12118848  .00002351  00000+0  20477-3 0  9999
2 64717  70.0013  61.2655 0002866 270.1030  89.9800 14.98336424 54533
